NORAD_CAT_ID,OBJECT_NAME,OBJECT_TYPE,EPOCH,MEAN_MOTION,ECCENTRICITY,INCLINATION,RA_OF_ASC_NODE,ARG_OF_PERICENTER,MEAN_ANOMALY,BSTAR,MEAN_MOTION_DOT,MEAN_MOTION_DDOT,TLE_LINE0,TLE_LINE1,TLE_LINE2,SEMIMAJOR_AXIS,PERIOD,APOGEE,PERIGEE,DECAYED
52993.0,STARLINK-4264,PAYLOAD,2024-01-01 12:16:11,15.08844807,0.0001549,53.2172,77.2829,96.3147,263.8021,6.3472e-05,7.22e-06,0.0,0 STARLINK-4264,1 52993U 22076H   24001.51124273  .00000722  00000-0  63472-4 0  9994,2 52993  53.2172  77.2829 0001549  96.3147 263.8021 15.08844807 82810,6917.866,95.437,540.802,538.659,0.0
52993.0,STARLINK-4264,PAYLOAD,2024-01-01 23:23:53,15.08835937,0.0001276,53.2172,75.2024,83.7813,276.3325,0.00010912,1.449e-05,0.0,0 STARLINK-4264,1 52993U 22076H   24001.97492834  .00001449  00000-0  10912-3 0  9992,2 52993  53.2172  75.2024 0001276  83.7813 276.3325 15.08835937 82889,6917.893,95.438,540.641,538.875,0.0
52993.0,STARLINK-4264,PAYLOAD,2024-01-02 13:42:21,15.08847055,0.0001302,53.2172,72.5255,92.8399,267.2743,0.00016033,2.265e-05,0.0,0 STARLINK-4264,1 52993U 22076H   24002.57108090  .00002265  00000-0  16033-3 0  9994,2 52993  53.2172  72.5255 0001302  92.8399 267.2743 15.08847055 82501,6917.859,95.437,540.625,538.823,0.0
52993.0,STARLINK-4264,PAYLOAD,2024-01-03 04:00:50,15.08839393,0.0001244,53.2177,69.8476,110.3901,249.7225,2.0779e-05,4.3e-07,0.0,0 STARLINK-4264,1 52993U 22076H   24003.16724906  .00000043  00000-0  20779-4 0  9995,2 52993  53.2177  69.8476 0001244 110.3901 249.7225 15.08839393 83068,6917.882,95.438,540.608,538.887,0.0
52993.0,STARLINK-4264,PAYLOAD,2024-01-03 11:57:45,15.08840617,0.0001393,53.217,68.3637,76.003,284.1117,6.8687e-05,8.05e-06,0.0,0 STARLINK-4264,1 52993U 22076H   24003.49844849  .00000805  00000-0  68687-4 0  9996,2 52993  53.2170  68.3637 0001393  76.0030 284.1117 15.08840617 82647,6917.879,95.438,540.707,538.78,0.0
52993.0,STARLINK-4264,PAYLOAD,2024-01-04 10:13:09,15.08840361,0.0001495,53.217,64.2011,83.164,276.9522,7.2468e-05,8.66e-06,0.0,0 STARLINK-4264,1 52993U 22076H   24004.42580916  .00000866  00000-0  72468-4 0  9991,2 52993  53.2170  64.2011 0001495  83.1640 276.9522 15.08840361 83250,6917.879,95.438,540.779,538.71,0.0
52993.0,STARLINK-4264,PAYLOAD,2024-01-05 10:03:57,15.08834034,0.0001439,53.2171,59.7406,77.1703,282.945,0.00020915,3.042e-05,0.0,0 STARLINK-4264,1 52993U 22076H   24005.41941046  .00003042  00000-0  20915-3 0  9994,2 52993  53.2171  59.7406 0001439  77.1703 282.9450 15.08834034 82930,6917.899,95.438,540.759,538.768,0.0
52993.0,STARLINK-4264,PAYLOAD,2024-01-06 09:54:43,15.08867104,0.0001405,53.2176,55.28,97.5217,262.5935,-0.00035394,-5.921e-05,0.0,0 STARLINK-4264,1 52993U 22076H   24006.41300201 -.00005921  00000-0 -35394-3 0  9994,2 52993  53.2176  55.2800 0001405  97.5217 262.5935 15.08867104 83558,6917.798,95.436,540.634,538.691,0.0
52993.0,STARLINK-4264,PAYLOAD,2024-01-07 08:10:08,15.08837753,0.0001606,53.2178,51.1175,103.7547,256.3624,4.4067e-05,4.13e-06,0.0,0 STARLINK-4264,1 52993U 22076H   24007.34037104  .00000413  00000-0  44067-4 0  9993,2 52993  53.2178  51.1175 0001606 103.7547 256.3624 15.08837753 83697,6917.887,95.438,540.863,538.641,0.0
52993.0,STARLINK-4264,PAYLOAD,2024-01-07 12:56:17,15.08842565,0.0001563,53.2173,50.2232,103.8468,256.2698,5.4884e-05,5.86e-06,0.0,0 STARLINK-4264,1 52993U 22076H   24007.53908767  .00000586  00000-0  54884-4 0  9995,2 52993  53.2173  50.2232 0001563 103.8468 256.2698 15.08842565 83250,6917.873,95.437,540.819,538.656,0.0
52993.0,STARLINK-4264,PAYLOAD,2024-01-08 11:11:41,15.08844524,0.0001496,53.2178,46.0572,90.6641,269.4522,9.1388e-05,1.167e-05,0.0,0 STARLINK-4264,1 52993U 22076H   24008.46644676  .00001167  00000-0  91388-4 0  9990,2 52993  53.2178  46.0572 0001496  90.6641 269.4522 15.08844524 83862,6917.867,95.437,540.766,538.697,0.0
52993.0,STARLINK-4264,PAYLOAD,2024-01-09 01:30:09,15.08843413,0.0001493,53.2188,43.3882,98.9044,261.2117,-6.6107e-06,-3.93e-06,0.0,0 STARLINK-4264,1 52993U 22076H   24009.06261238 -.00000393  00000-0 -66107-5 0  9990,2 52993  53.2188  43.3882 0001493  98.9044 261.2117 15.08843413 83958,6917.87,95.437,540.768,538.702,0.0
52993.0,STARLINK-4264,PAYLOAD,2024-01-09 09:27:05,15.08839296,0.0001636,53.2191,41.8978,85.8963,274.2216,1.838e-05,4e-08,0.0,0 STARLINK-4264,1 52993U 22076H   24009.39381482  .00000004  00000-0  18380-4 0  9996,2 52993  53.2191  41.8978 0001636  85.8963 274.2216 15.08839296 83537,6917.883,95.438,540.879,538.616,0.0
52993.0,STARLINK-4264,PAYLOAD,2024-01-10 01:20:57,15.08830163,0.000152,53.2174,38.9236,99.9559,260.1605,-2.8191e-06,-3.33e-06,0.0,0 STARLINK-4264,1 52993U 22076H   24010.05622329 -.00000333  00000-0 -28191-5 0  9998,2 52993  53.2174  38.9236 0001520  99.9559 260.1605 15.08830163 84105,6917.91,95.438,540.827,538.724,0.0
52993.0,STARLINK-4264,PAYLOAD,2024-01-10 09:17:53,15.08839386,0.0001434,53.2176,37.4376,88.5373,271.5783,-1.8559e-05,-5.83e-06,0.0,0 STARLINK-4264,1 52993U 22076H   24010.38741992 -.00000583  00000-0 -18559-4 0  9995,2 52993  53.2176  37.4376 0001434  88.5373 271.5783 15.08839386 84152,6917.882,95.438,540.739,538.755,0.0
52993.0,STARLINK-4264,PAYLOAD,2024-01-11 10:44:01,15.08858955,0.0001728,53.2175,32.679,92.8104,267.3086,0.000218,3.185e-05,0.0,0 STARLINK-4264,1 52993U 22076H   24011.44724350  .00003185  00000-0  21800-3 0  9993,2 52993  53.2175  32.6790 0001728  92.8104 267.3086 15.08858955 84314,6917.822,95.436,540.883,538.492,0.0
52993.0,STARLINK-4264,PAYLOAD,2024-01-12 01:02:31,15.08829792,0.000174,53.217,29.9963,128.189,231.9259,0.00035844,5.42e-05,0.0,0 STARLINK-4264,1 52993U 22076H   24012.04342208  .00005420  00000-0  35844-3 0  9995,2 52993  53.2170  29.9963 0001740 128.1890 231.9259 15.08829792 84405,6917.912,95.438,540.98,538.573,0.0
52993.0,STARLINK-4264,PAYLOAD,2024-01-12 10:34:49,15.08852373,0.000162,53.2163,28.2175,98.473,261.6446,0.00029771,4.455e-05,0.0,0 STARLINK-4264,1 52993U 22076H   24012.44085276  .00004455  00000-0  29771-3 0  9997,2 52993  53.2163  28.2175 0001620  98.4730 261.6446 15.08852373 84468,6917.843,95.437,540.828,538.587,0.0
52993.0,STARLINK-4264,PAYLOAD,2024-01-13 04:04:04,15.08844571,0.0002462,53.218,24.9431,117.1821,242.9423,-1.6174e-05,-5.46e-06,0.0,0 STARLINK-4264,1 52993U 22076H   24013.16949340 -.00000546  00000-0 -16174-4 0  9991,2 52993  53.2180  24.9431 0002462 117.1821 242.9423 15.08844571 84570,6917.866,95.437,541.435,538.028,0.0
52993.0,STARLINK-4264,PAYLOAD,2024-01-13 07:14:50,15.08842248,0.0001802,53.2175,24.3526,97.3672,262.7525,1.7194e-06,-2.61e-06,0.0,0 STARLINK-4264,1 52993U 22076H   24013.30197611 -.00000261  00000-0  17194-5 0  9990,2 52993  53.2175  24.3526 0001802  97.3672 262.7525 15.08842248 84126,6917.874,95.437,540.985,538.492,0.0
52993.0,STARLINK-4264,PAYLOAD,2024-01-14 05:30:15,15.08840136,0.0001996,53.2183,20.1893,111.5627,248.5578,0.00014736,2.058e-05,0.0,0 STARLINK-4264,1 52993U 22076H   24014.22934043  .00002058  00000-0  14736-3 0  9992,2 52993  53.2183  20.1893 0001996 111.5627 248.5578 15.08840136 84730,6917.88,95.438,541.126,538.364,0.0
52993.0,STARLINK-4264,PAYLOAD,2024-01-14 10:16:24,15.08844713,0.0001842,53.2178,19.2945,111.9062,248.2126,0.00023559,3.464e-05,0.0,0 STARLINK-4264,1 52993U 22076H   24014.42805871  .00003464  00000-0  23559-3 0  9995,2 52993  53.2178  19.2945 0001842 111.9062 248.2126 15.08844713 84290,6917.866,95.437,541.005,538.457,0.0
52993.0,STARLINK-4264,PAYLOAD,2024-01-15 10:07:10,15.08856222,0.0001839,53.2184,14.8318,108.008,252.1113,0.00047172,7.231e-05,0.0,0 STARLINK-4264,1 52993U 22076H   24015.42165382  .00007231  00000-0  47172-3 0  9995,2 52993  53.2184  14.8318 0001839 108.0080 252.1113 15.08856222 84912,6917.831,95.437,540.968,538.424,0.0
52993.0,STARLINK-4264,PAYLOAD,2024-01-15 22:50:16,15.08834791,0.0001993,53.2187,12.4531,125.2607,234.8572,-0.00010638,-1.981e-05,0.0,0 STARLINK-4264,1 52993U 22076H   24015.95158026 -.00001981  00000-0 -10638-3 0  9995,2 52993  53.2187  12.4531 0001993 125.2607 234.8572 15.08834791 84523,6917.896,95.438,541.14,538.383,0.0
52993.0,STARLINK-4264,PAYLOAD,2024-01-16 09:57:58,15.08837748,0.0002155,53.2187,10.3713,123.4157,236.7042,2.1047e-05,4.7e-07,0.0,0 STARLINK-4264,1 52993U 22076H   24016.41526133  .00000047  00000-0  21047-4 0  9992,2 52993  53.2187  10.3713 0002155 123.4157 236.7042 15.08837748 84598,6917.887,95.438,541.243,538.261,0.0
52993.0,STARLINK-4264,PAYLOAD,2024-01-17 03:27:13,15.08843688,0.0002013,53.2177,7.104,117.9027,242.2169,0.00040889,6.226e-05,0.0,0 STARLINK-4264,1 52993U 22076H   24017.14390230  .00006226  00000-0  40889-3 0  9999,2 52993  53.2177   7.1040 0002013 117.9027 242.2169 15.08843688 85178,6917.869,95.437,541.127,538.342,0.0
52993.0,STARLINK-4264,PAYLOAD,2024-01-17 06:37:59,15.08848436,0.0001576,53.217,6.5093,99.2366,260.8805,0.00057368,8.856e-05,0.0,0 STARLINK-4264,1 52993U 22076H   24017.27638243  .00008856  00000-0  57368-3 0  9993,2 52993  53.2170   6.5093 0001576  99.2366 260.8805 15.08848436 84722,6917.855,95.437,540.81,538.629,0.0
52993.0,STARLINK-4264,PAYLOAD,2024-01-18 03:18:00,15.08840697,0.000197,53.2184,2.6444,67.9454,292.1747,0.00025403,3.757e-05,0.0,0 STARLINK-4264,1 52993U 22076H   24018.13750757  .00003757  00000-0  25403-3 0  9994,2 52993  53.2184   2.6444 0001970  67.9454 292.1747 15.08840697 85323,6917.878,95.438,541.106,538.38,0.0
52993.0,STARLINK-4264,PAYLOAD,2024-01-18 08:04:09,15.08845547,0.0002021,53.2191,1.7514,69.4253,290.6956,0.00029012,4.333e-05,0.0,0 STARLINK-4264,1 52993U 22076H   24018.33622625  .00004333  00000-0  29012-3 0  9999,2 52993  53.2191   1.7514 0002021  69.4253 290.6956 15.08845547 84885,6917.863,95.437,541.127,538.33,0.0
52993.0,STARLINK-4264,PAYLOAD,2024-01-19 04:44:10,15.08848626,0.0001592,53.2162,357.8859,115.8304,244.2853,0.00020296,2.944e-05,0.0,0 STARLINK-4264,1 52993U 22076H   24019.19733987  .00002944  00000-0  20296-3 0  9999,2 52993  53.2162 357.8859 0001592 115.8304 244.2853 15.08848626 85484,6917.854,95.437,540.82,538.618,0.0
